ONEWEB-0560             
1 55145U 23004F   24364.52579183  .00000065  00000+0  13166-3 0  9998
2 55145  87.9109  81.8633 0001575 114.9239 245.2056 13.18686336 99245
ONEWEB-0565             
1 55146U 23004G   24363.68482266  .00000123  00000+0  27813-3 0  9999
2 55146  87.9104  82.0999 0002125 119.5826 240.5518 13.18685944 99126
ONEWEB-0567             
1 55147U 23004H   24363.67849768  .00000119  00000+0  26816-3 0  9990
2 55147  87.9105  82.0558 0001814 120.3942 239.7370 13.18685968 99124
ONEWEB-0569             
1 55148U 23004J   24364.46899151  .00000321  00000+0  84345-3 0  9996
2 55148  87.8913  66.5445 0001692 137.8891 222.2368 13.13469217 99983
ONEWEB-0570             
1 55149U 23004K   24364.50050363 -.00000001  00000+0 -35084-4 0  9990
2 55149  87.9107  81.8925 0002486 106.3089 253.8317 13.18685424 99221
ONEWEB-0571             
1 55150U 23004L   24364.19066262  .00000085  00000+0  18346-3 0  9993
2 55150  87.9109  81.9619 0002323 129.4905 230.6432 13.18684702 99194
ONEWEB-0572             
1 55151U 23004M   24363.78966773  .00000009  00000+0 -10318-4 0  9993
2 55151  87.9106 112.5321 0001863 109.5484 250.5849 13.17649821 96970
ONEWEB-0573             
1 55152U 23004N   24364.18434570  .00000132  00000+0  30294-3 0  9994
2 55152  87.9104  81.9748 0002493 121.6130 238.5246 13.18686039 99180
